#dP2020  1  4  0  0  0.00000000      97 __u+U IGS08 FIT  IAC
## 2086 518400.00000000   900.00000000 58852 0.0000000000000
+  114   C01C03C04C05C06C07C08C09C10C11C12C13C14C16C19C20C21
+        C22C23C24C25C26C27C28C29C30C32C33C34C35C36C37E01E02
+        E03E04E05E07E08E09E11E12E13E14E15E18E19E21E24E25E26
+        E27E30E31E33E36G01G02G03G04G05G06G07G08G09G10G11G12
+        G13G14G15G16G17G18G19G20G21G22G23G24G25G26G27G28G29
+        G30G31G32J01J02J03J07R01R02R03R04R05R07R08R09R11R12
+        R13R14R15R16R17R18R19R20R21R22R23R26  0  0  0  0  0
++        13 13 13 12  8  8  8  7  8  7  7  8  7  8  7  7  7
++         7  7  7  7  7  7  7  7  7  7  7  8  8  8  7  4  4
++         3  4  3  4  4  4  4  4  4  4  3  4  4  4  3  4  3
++         4  4  4  4  4  3  3  3  3  3  3  3  3  3  3  3  3
++         3  3  3  3  3  3  3  3  3  3  3  3  3  3  3  3  3
++         3  3  3  8  8  8 14  6  5  5  7  5  5  5  5  5  5
++         6  5  5  6  5  5  6  6  5  5  5  7  0  0  0  0  0
%c M  cc GPS ccc cccc cccc cccc cccc ccccc ccccc ccccc ccccc
%c cc cc ccc ccc cccc cccc cccc cccc ccccc ccccc ccccc ccccc
%f  1.2500000  1.025000000  0.00000000000  0.000000000000000
%f  0.0000000  0.000000000  0.00000000000  0.000000000000000
%i    0    0    0    0      0      0      0      0         0
%i    0    0    0    0      0      0      0      0         0
/* INFORMATION & ANALYSIS CENTER (IAC)            FINAL DATA
/* S/V CLOCKS ARE ALIGNED TO GNSS TIME                      
/* G:C1WC2W R:C1PC2P E:C1XC5X C:C2IC6I J:C1CC2S             
/* PCV:IGS14_2082 OL/AL:FES2004  NONE     YN ORB:CoN CLK:CoN
*  2020 01 04  6  0  0.00000000
PC01 -32308.381218  27103.697369   -659.697930    339.774331
PC03 -14757.272877  39501.211919   -817.671400    391.391678
PC04 -39636.226589  14422.412189   -546.907886   -431.076515
PC05  21960.813082  35992.599943    -76.364584   -128.646322
PC06 -20862.477815  23744.679134  28059.450628    268.474918
PC07 -16986.586249  38376.703912   6360.116253    122.634997
PC08  -4571.272763  25465.901544 -33115.795700    -73.518447
PC09  -5235.394362  24928.255838  33778.671830    236.313133
PC10  -6380.582985  41237.114344  -7217.298957   -526.482560
PC11  21560.708939  -7090.972885  16263.853365   -100.349163
PC12  27415.281155   5042.516875   -844.747860    306.904625
PC13   7152.514931  33073.836960 -24878.266884    189.066633
PC14  20361.350222 -17762.322911   6893.182726    401.299667
PC16 -18937.598204  23843.478560  29117.326254   -874.189122
PC19 -16140.984881  22673.661525   2124.693629    288.535690
PC20 -21366.351932  10812.618637 -14338.478339   -508.573397
PC21  14006.825297   7936.741705  22803.777783     50.580345
PC22  -1499.368502  21576.278232  17645.883239   -621.451575
PC23  -7096.406486 -26726.044896  -3778.682406   -869.768832
PC24  16614.908515   -892.649193 -22404.775080   -894.009861
PC25   5992.781531 -20065.148220 -18458.598575   -469.703940
PC26  17251.808747  17225.005928 -13553.409766    521.208132
PC27 -23829.255987 -10914.198678   9546.352897    254.437248
PC28  -6946.728356 -16357.994147  21525.684153    245.421272
PC29 -13450.694196  12752.786642 -20860.696989    168.947487
PC30 -26748.495948   1719.427146  -7725.983630    250.706476
PC32 -14080.050440  -7823.377797 -22780.321639   -854.762220
PC33  16078.073792 -22710.109210  -2029.359680   -744.103027
PC34  26660.406905  -1894.310060   8065.414817   -363.534593
PC35   7379.761030  16171.154662 -21513.203696   -729.894090
PC36  -6616.829469  19746.825706  18597.898912   -855.396271
PC37 -16710.091703 -18139.712864  13092.270078   -932.848769
PE01  15032.927760   9947.104690 -23474.114558   -766.371809
PE02 -15051.152897  -9888.076688  23496.577856    103.354337
PE03 -23511.993112  -2320.383603 -17846.860505   -251.247361
PE04  26794.906655 -12512.034575   1302.096908   -438.554602
PE05  -6397.262261 -15956.146341 -24102.202304   -417.054464
PE07 -14349.623708  20176.757958  16227.332271   -322.003471
PE08 -26662.603823  12820.621587  -1140.531819   6239.705049
PE09  14166.216405 -20193.671814 -16354.740490   6199.874956
PE11   3602.612787 -16684.258932  24184.181977    643.558038
PE12  21359.791666  -2336.254083  20374.507648   6018.531173
PE13  -3706.207047  16519.975597 -24267.443077    397.035797
PE14 -18322.275093  -9155.111201  13512.713588   -855.171517
PE15 -21156.878431   2564.716498 -20528.329908    882.037048
PE18  14815.129904  17145.009148 -22419.556483   -951.527984
PE19  22164.763015   3881.445377  19229.454333     -2.120967
PE21   6084.973223  26667.672762 -11306.255222   -575.074365
PE24   6719.413379 -27826.742629  -7591.274759   5681.176631
PE25  -6027.876554 -26724.212441  11224.784058   -500.222015
PE26  15954.634989  20957.174647 -13487.065363   3686.582526
PE27  -6545.926198  27846.026251   7596.272457    310.977563
PE30 -15412.481507  12470.542312  21968.226438   4252.254905
PE31  15272.303174 -12687.229427 -21946.549341   -471.180896
PE33  26217.849157  12894.651437   4766.536921   -471.157130
PE36 -15924.679638 -20803.634606  13788.773337    615.756027
PG01  20431.493325  11841.718636  12269.529837   -251.332108
PG02 -12359.623315 -22060.231271   8925.825871   -379.299956
PG03  15606.170437    565.102101  21413.785923    -65.468239
PG04  25537.273510   1492.502434   7193.132931    -29.420794
PG05  -5327.406607 -20401.290014 -16167.051430     -5.612161
PG06  -1167.090836 -19878.656733  17613.145773   -172.660324
PG07  15455.276527  -4499.383686 -20917.400408   -184.537114
PG08  20126.297508   7259.594772 -15851.424038    -19.052274
PG09  25562.465537  -6748.721077  -2647.290372   -124.406145
PG10 -11448.823223  23491.810599  -3915.918416   -196.923926
PG11  24686.328050   8834.244193   2484.060069   -400.089127
PG12 -13495.499551  -5790.494112  21909.878277    166.067621
PG13 -12207.549266 -13080.764207 -19779.003432    -22.277682
PG14  -2480.893173  15505.245834  21728.942352    -40.870341
PG15 -21383.672530  -5850.457260 -15201.644590   -261.023436
PG16   2189.957415  20856.571207 -16217.972123   -109.947455
PG17  13916.279724 -13855.483406  18280.169291    192.561380
PG18  19825.415119  17149.101776   4060.613179    111.160795
PG19   6373.408218 -14516.470487  21019.938172   -217.222267
PG20 -14567.963994  17157.644118 -14034.054952    527.748385
PG21 -12710.429312   8330.412697 -20977.954132    -60.867944
PG22  13674.074886   9336.313525  21000.708984   -780.613153
PG23  26053.395993   -339.766131   6461.792678   -145.337362
PG24 -21477.446605 -12361.613856   9850.564683     -7.105986
PG25 -16715.035671   9171.273312  18153.465600    -16.642839
PG26  -2963.432691  25280.777564  -7214.783713    119.977630
PG27   9311.469451  12986.581123 -21387.309915   -170.752993
PG28  12392.271665 -23463.652237  -1668.848773    747.181663
PG29 -26083.486770   4412.052049  -2524.280873      1.337159
PG30   7043.763206 -15332.894087 -20441.217972   -121.250246
PG31   2526.168428  21025.742337  15709.171777    -14.252560
PG32 -12756.251593  15053.950275  17776.080118    175.086973
PJ01 -27401.366988  31946.118809   1321.071793   -326.092095
PJ02 -25861.058450  24968.761997  26877.743845     -0.598821
PJ03 -31380.443989  18632.999821 -16327.745215    -11.665852
PJ07 -25406.642180  33641.345251     -5.793125      0.015150
PR01  13361.711363   2126.085621  21616.009029     55.119898
PR02  20699.884943 -13420.035136   6634.939561    405.586949
PR03  13818.908729 -18554.925292 -10766.117298      7.621916
PR04   -811.452785 -12903.815034 -21970.190374     34.264272
PR05 -14943.818776    -12.219861 -20661.822379     42.474835
PR07 -13358.518724  18509.379667  11369.139918    -31.572978
PR08    866.960471  13014.047399  21963.666770     13.315202
PR09  -8552.864561  11027.009252  21380.864331    109.611748
PR11   7302.452523  23762.814141  -5796.351031     14.351002
PR12  11537.888895  11815.901604 -19403.300790     93.817506
PR13   9314.244093  -7756.423423 -22461.320766    -33.099527
PR14   1766.577804 -22361.061770 -12128.391883     46.732628
PR15  -6837.070384 -24065.420760   5020.260270    105.611782
PR16 -11940.145435 -11339.611623  19505.795675     -0.793559
PR17   5484.248992  -9266.908163  23137.679989    289.453631
PR18 -12025.486002 -13130.326829  18262.798634     20.326018
PR19 -22846.641017 -10689.527436   3825.389352    -72.285115
PR20 -20607.271028   -849.201793 -14965.950821   -400.608111
PR21  -4663.470010   9490.369822 -23205.893193    -96.007270
PR22  14723.582613  13162.124736 -16203.831049     -8.318272
PR23  24202.351855   7643.067875   2547.206009    277.541425
PR26 -22558.444830  -2678.191315 -11613.325168   -413.252375
EOF
